FENGYUN 4A              
1 41882U 16077A   22207.07827159 -.00000328  00000+0  00000+0 0  9998
2 41882   0.0714  73.7714 0002642  51.4723 311.1748  1.00278595 20725
CYGFM05                 
1 41884U 16078A   22206.75898194  .00001882  00000+0  95864-4 0  9994
2 41884  34.9570 323.2359 0014344  72.4560 287.7718 15.16509813310601
CYGFM04                 
1 41885U 16078B   22206.73173929  .00001951  00000+0  97854-4 0  9993
2 41885  34.9498 312.4238 0012737  90.3492 269.8679 15.17044080310646
CYGFM02                 
1 41886U 16078C   22206.72153987  .00001866  00000+0  93568-4 0  9998
2 41886  34.9591 314.7074 0013424  84.0111 276.2131 15.17083083310726
CYGFM01                 
1 41887U 16078D   22206.69996399  .00002041  00000+0  10436-3 0  9995
2 41887  34.9538 326.0565 0014789  71.2383 288.9933 15.16316848310540
CYGFM08                 
1 41888U 16078E   22206.73858994  .00001804  00000+0  91234-4 0  9991
2 41888  34.9506 318.2882 0013915  84.2012 276.0285 15.16787251310687
CYGFM06                 
1 41889U 16078F   22206.63567074  .00001935  00000+0  96934-4 0  9994
2 41889  34.9587 313.9170 0012349  83.2235 276.9882 15.17098513310651
CYGFM07                 
1 41890U 16078G   22206.68753277  .00002087  00000+0  10462-3 0  9993
2 41890  34.9524 312.4372 0012222  88.4012 271.8100 15.17031039310648
CYGFM03                 
1 41891U 16078H   22206.68634801  .00002133  00000+0  10691-3 0  9991
2 41891  34.9557 312.9289 0011738  86.1400 274.0654 15.17024200310634
FENGYUN 3D              
1 43010U 17072A   22207.12794450  .00000046  00000+0  43393-4 0  9995
2 43010  98.8172 151.5391 0002532 127.0456 233.0952 14.19215085243253
NOAA 20                 
1 43013U 17073A   22207.13069778  .00000010  00000+0  25443-4 0  9995
2 43013  98.7169 145.0826 0000948  64.0715 296.0558 14.19563126242712
GOES 17                 
1 43226U 18022A   22206.70743715  .00000101  00000+0  00000+0 0  9996
2 43226   0.0840 256.1591 0000148 294.6768 229.9207  1.00272382 16154
FENGYUN 2H              
1 43491U 18050A   22206.83616948 -.00000128  00000+0  00000+0 0  9992
2 43491   1.2431  96.4565 0004125  42.7209 184.7107  1.00270958 15179
METOP-C                 
1 43689U 18087A   22207.15397721  .00000046  00000+0  40895-4 0  9991
2 43689  98.6818 266.5032 0001568 298.4072  61.6948 14.21498020192803
GEO-KOMPSAT-2A          
1 43823U 18100A   22206.84584873 -.00000342  00000+0  00000+0 0  9997
2 43823   0.0136 111.4470 0002038 352.9986 271.8315  1.00272175 13359
METEOR-M2 2             
1 44387U 19038A   22207.15651501  .00000012  00000+0  24636-4 0  9991
2 44387  98.7253 167.6295 0001863 129.2808 230.8542 14.23715582158912
FENGYUN 3E              
1 49008U 21062A   22207.20377154 -.00000022  00000+0  10045-4 0  9992
2 49008  98.7117 208.5508 0000951 205.0108 155.1023 14.19734859 54811
GOES 18                 
1 51850U 22021A   22206.79267703  .00000099  00000+0  00000+0 0  9995
2 51850   0.0419 100.0860 0002735 114.7997 236.9666  1.00271890  1529
GAOFEN 12-3             
1 52912U 22069A   22207.14838809  .00000745  00000+0  10481-3 0  9994
2 52912  97.9828  94.6737 0001639  98.1033 262.0367 14.80256485  4220
CZ-4C R/B               
1 52913U 22069B   22206.71549451  .00001674  00000+0  10902-3 0  9999
2 52913  97.9693  95.3666 0072076 311.1217  48.3802 15.07384545  4223
CAPSTONE                
1 52914U 22070A   22184.14236111 -.00000375  00000+0  00000+0 0  9992
2 52914  39.0806 321.8334 8405410 344.4990 285.0037  1.02266752   396
LUNAR PHOTON            
1 52916U 22070C   22184.14236111 -.00000375  00000+0  00000+0 0  9994
2 52916  39.0806 321.8334 8405410 344.4990 285.0037  1.02266752   398
NACHOS-1                
1 52917U 22015D   22206.84821367  .00026270  00000+0  37817-3 0  9990
2 52917  51.6425 144.0998 0007544  57.4392 302.7327 15.55827664  4214
SES-22                  
1 52933U 22071A   22206.72549323  .00000090  00000+0  00000+0 0  9998
2 52933   0.0562 258.2441 0000254  70.1290  96.8194  1.00473299   285
FALCON 9 R/B            
1 52934U 22071B   22206.38309168  .00000714  00000+0  65153-3 0  9999
2 52934  16.6452  56.8908 7249598 197.6182 109.6564  2.28795187   575
DS-EO                   
1 52935U 22072A   22207.17569172 -.00001344  00000+0 -16248-3 0  9995
2 52935   9.9969 248.8629 0007097 325.5442  34.4295 14.99651310  3835
2022-072B               
1 52936U 22072B   22206.97026931  .00037259  00000+0  28255-2 0  9996
2 52936   9.9902 250.1551 0008031 320.3428  39.7050 15.00204827  3814
NEUSAR                  
1 52937U 22072C   22207.23162783  .00001246  00000+0  40506-4 0  9995
2 52937   9.9856 248.2146 0010008 328.5528  31.4066 15.00327024  3876
2022-072D               
1 52938U 22072D   22206.99857639  .00015567  00000+0  93998-3 0  9992
2 52938   9.9055 248.3457 0027012 199.6101 201.4349 15.07309035  3851
2022-072E               
1 52939U 22072E   22207.24446418  .00002796  00000+0  14177-3 0  9993
2 52939   9.9489 247.1365 0037279 322.1097  37.6565 15.03460197  3886
WFOV (USA 332)          
1 52940U 22073A   22206.88529728 -.00000188  00000+0  00000+0 0  9991
2 52940   0.0557 129.8406 0012282 151.3776 307.1957  0.98503689   116
RECURVE                 
1 52944U 22074A   22206.80609304  .00005306  00000+0  22969-3 0  9995
2 52944  44.9992 350.1670 0002652 348.4106  11.6714 15.23528122  3583
2022-074B               
1 52945U 22074B   22206.67324740  .00007981  00000+0  33834-3 0  9993
2 52945  44.9973 350.8340 0003450 353.7303   6.3535 15.23640265  3562
2022-074C               
1 52946U 22074C   22207.08868724  .00008364  00000+0  24315-3 0  9995
2 52946  45.0030 346.3661 0047364 344.4762  15.4575 15.34872291  3645
SLINGSHOT 1             
1 52947U 22074D   22206.66552254  .00006635  00000+0  27901-3 0  9990
2 52947  44.9883 350.7937 0004211 322.2382  37.8204 15.24158722  3564
2022-074E               
1 52948U 22074E   22206.78972744  .00007583  00000+0  31320-3 0  9997
2 52948  44.9851 350.0019 0006520 327.2394  32.8054 15.24577092  3582
2022-074F               
1 52949U 22074F   22206.86636043  .00013035  00000+0  53892-3 0  9993
2 52949  44.9999 349.7505 0003791 351.6072   8.4741 15.24004289  3598
CTIM                    
1 52950U 22074G   22206.86678381  .00013533  00000+0  55929-3 0  9992
2 52950  45.0100 349.7661 0003461 340.3119  19.7626 15.23990857  3591
2022-074H               
1 52951U 22074H   22206.86808138  .00003386  00000+0  15002-3 0  9991
2 52951  44.9906 349.7576 0004170 351.4809   8.6001 15.23721245  3593
DUMMY CUBESAT           
1 52983U 22065H   22207.20510303  .00000292  00000+0  73209-4 0  9996
2 52983  98.0218 357.2598 0008551 133.1057 227.0850 14.57995535  2767
COSMOS 2557 [GLONASS-K] 
1 52984U 22075A   22206.54346963 -.00000074  00000+0  10000-3 0  9991
2 52984  64.8168   4.1880 0010503 281.6999 258.2390  2.13101932   389
FREGAT R/B              
1 52985U 22075B   22206.17261807 -.00000075  00000+0  00000+0 0  9990
2 52985  64.8360   4.2436 0078862 121.0606 239.7266  2.08817501   371
STARLINK-4260           
1 52986U 22076A   22206.91667824 -.00007760  00000+0 -50901-4 0  9992
2 52986  53.2193 288.6895 0002104  36.8655 198.9567 15.73203882  1309
STARLINK-4259           
1 52987U 22076B   22206.91667824 -.01114582  00000+0 -89338-2 0  9999
2 52987  53.2174 288.6827 0001744  36.0096 198.6703 15.73058643  3397
STARLINK-4291           
1 52988U 22076C   22207.16668981 -.00035096  00000+0 -24622-3 0  9990
2 52988  53.2193 287.4488 0001757  37.6932 176.1820 15.73241799  3431
STARLINK-4293           
1 52989U 22076D   22207.16668981 -.01109501  00000+0 -91196-2 0  9994
2 52989  53.2173 287.4444 0001895  29.3252 182.3133 15.72460681  3436
STARLINK-4286           
1 52990U 22076E   22206.91667824 -.01117854  00000+0 -89581-2 0  9998
2 52990  53.2174 288.6798 0001906  31.3467 205.1209 15.73069917  3399
STARLINK-4285           
1 52991U 22076F   22206.91667824 -.01114455  00000+0 -89287-2 0  9996
2 52991  53.2174 288.6788 0001781  35.1544 202.5065 15.73068519  3396
STARLINK-4269           
1 52992U 22076G   22206.91667824 -.01120994  00000+0 -89836-2 0  9992
2 52992  53.2175 288.6778 0001590  36.7753 201.4814 15.73080059  1306
STARLINK-4264           
1 52993U 22076H   22206.91667824 -.00003984  00000+0 -23947-4 0  9994
2 52993  53.2192 288.6846 0001976  36.2020 202.6935 15.73221679  1304
STARLINK-4256           
1 52994U 22076J   22206.91667824 -.00009991  00000+0 -66706-4 0  9999
2 52994  53.2191 288.6820 0001988  34.6237 204.8459 15.73245732  1302
STARLINK-4296           
1 52995U 22076K   22207.16668981  .00045020  00000+0  32308-3 0  9994
2 52995  53.2180 287.4451 0001745  47.6833 169.7526 15.73227623  3434
STARLINK-4295           
1 52996U 22076L   22206.91667824 -.00023032  00000+0 -16008-3 0  9992
2 52996  53.2190 288.6803 0001787  25.1082 215.0080 15.73205649  1301
STARLINK-4301           
1 52997U 22076M   22206.91667824 -.00021355  00000+0 -14807-3 0  9994
2 52997  53.2194 288.6769 0001735  31.9498 211.1349 15.73206074  3395
STARLINK-4254           
1 52998U 22076N   22207.25001157  .00034560  00000+0  24966-3 0  9991
2 52998  53.2189 287.0271 0001853  34.6343 295.5777 15.73197932  3440
STARLINK-4217           
1 52999U 22076P   22206.91667824 -.00005672  00000+0 -35954-4 0  9997
2 52999  53.2190 288.6735 0001931  35.5171 208.6946 15.73234482  1309
STARLINK-4194           
1 53000U 22076Q   22207.25001157  .00036804  00000+0  26563-3 0  9994
2 53000  53.2189 287.0256 0001738  27.6218 303.2116 15.73187992  3442
STARLINK-4190           
1 53001U 22076R   22206.91667824 -.00005896  00000+0 -37556-4 0  9990
2 53001  53.2188 288.6719 0001893  36.0355 208.7542 15.73232029  1308
STARLINK-4121           
1 53002U 22076S   22206.91667824 -.00006876  00000+0 -44596-4 0  9992
2 53002  53.2190 288.6761 0001894  32.4710 210.0538 15.73203728  3391
